[{"OBJECT_NAME":"STARLINK-31363","OBJECT_ID":"2024-093A","EPOCH":"2026-02-02T01:33:48.594528","MEAN_MOTION":15.2757393,"ECCENTRICITY":0.00010357,"INCLINATION":43.0024,"RA_OF_ASC_NODE":46.8808,"ARG_OF_PERICENTER":264.8977,"MEAN_ANOMALY":95.1756,"EPHEMERIS_TYPE":0,"CLASSIFICATION_TYPE":"U","NORAD_CAT_ID":59782,"ELEMENT_SET_NO":999,"REV_AT_EPOCH":9728,"BSTAR":2.2014379e-5,"MEAN_MOTION_DOT":3.44e-6,"MEAN_MOTION_DDOT":0},{"OBJECT_NAME":"STARLINK-31868","OBJECT_ID":"2024-093B","EPOCH":"2026-02-02T01:35:36.626496","MEAN_MOTION":15.27600781,"ECCENTRICITY":3.98e-5,"INCLINATION":43.0019,"RA_OF_ASC_NODE":46.8555,"ARG_OF_PERICENTER":281.6123,"MEAN_ANOMALY":78.4684,"EPHEMERIS_TYPE":0,"CLASSIFICATION_TYPE":"U","NORAD_CAT_ID":59783,"ELEMENT_SET_NO":999,"REV_AT_EPOCH":9728,"BSTAR":0.00011329979,"MEAN_MOTION_DOT":2.859e-5,"MEAN_MOTION_DDOT":0},{"OBJECT_NAME":"STARLINK-31848","OBJECT_ID":"2024-093C","EPOCH":"2026-02-02T07:15:17.136288","MEAN_MOTION":15.2758222,"ECCENTRICITY":0.00012243,"INCLINATION":43.0029,"RA_OF_ASC_NODE":45.2624,"ARG_OF_PERICENTER":261.595,"MEAN_ANOMALY":98.4763,"EPHEMERIS_TYPE":0,"CLASSIFICATION_TYPE":"U","NORAD_CAT_ID":59784,"ELEMENT_SET_NO":999,"REV_AT_EPOCH":9732,"BSTAR":6.7412721e-5,"MEAN_MOTION_DOT":1.593e-5,"MEAN_MOTION_DDOT":0},{"OBJECT_NAME":"STARLINK-31890","OBJECT_ID":"2024-093D","EPOCH":"2026-02-01T01:31:51.791232","MEAN_MOTION":15.27581719,"ECCENTRICITY":5.573e-5,"INCLINATION":42.9978,"RA_OF_ASC_NODE":52.3042,"ARG_OF_PERICENTER":245.524,"MEAN_ANOMALY":114.5554,"EPHEMERIS_TYPE":0,"CLASSIFICATION_TYPE":"U","NORAD_CAT_ID":59785,"ELEMENT_SET_NO":999,"REV_AT_EPOCH":9713,"BSTAR":5.8662292e-5,"MEAN_MOTION_DOT":1.353e-5,"MEAN_MOTION_DDOT":0},{"OBJECT_NAME":"STARLINK-31862","OBJECT_ID":"2024-093E","EPOCH":"2026-02-02T00:24:39.669984","MEAN_MOTION":15.27575037,"ECCENTRICITY":0.00010948,"INCLINATION":43.0053,"RA_OF_ASC_NODE":50.0214,"ARG_OF_PERICENTER":287.463,"MEAN_ANOMALY":72.6102,"EPHEMERIS_TYPE":0,"CLASSIFICATION_TYPE":"U","NORAD_CAT_ID":59786,"ELEMENT_SET_NO":999,"REV_AT_EPOCH":9724,"BSTAR":6.1861373e-5,"MEAN_MOTION_DOT":1.44e-5,"MEAN_MOTION_DDOT":0},{"OBJECT_NAME":"STARLINK-31870","OBJECT_ID":"2024-093F","EPOCH":"2026-02-02T01:53:15.226944","MEAN_MOTION":15.27635813,"ECCENTRICITY":0.00010968,"INCLINATION":43.0019,"RA_OF_ASC_NODE":49.6287,"ARG_OF_PERICENTER":286.5314,"MEAN_ANOMALY":73.5418,"EPHEMERIS_TYPE":0,"CLASSIFICATION_TYPE":"U","NORAD_CAT_ID":59787,"ELEMENT_SET_NO":999,"REV_AT_EPOCH":9725,"BSTAR":-0.00041492212,"MEAN_MOTION_DOT":-0.00011681,"MEAN_MOTION_DDOT":0},{"OBJECT_NAME":"STARLINK-31888","OBJECT_ID":"2024-093G","EPOCH":"2026-02-02T02:08:06.398880","MEAN_MOTION":15.27548196,"ECCENTRICITY":9.853e-5,"INCLINATION":43.0046,"RA_OF_ASC_NODE":49.7021,"ARG_OF_PERICENTER":266.4556,"MEAN_ANOMALY":93.6183,"EPHEMERIS_TYPE":0,"CLASSIFICATION_TYPE":"U","NORAD_CAT_ID":59788,"ELEMENT_SET_NO":999,"REV_AT_EPOCH":9725,"BSTAR":-4.7663623e-5,"MEAN_MOTION_DOT":-1.572e-5,"MEAN_MOTION_DDOT":0},{"OBJECT_NAME":"STARLINK-31863","OBJECT_ID":"2024-093H","EPOCH":"2026-02-02T02:04:21.986976","MEAN_MOTION":15.27577501,"ECCENTRICITY":0.00010556,"INCLINATION":43.0038,"RA_OF_ASC_NODE":49.6831,"ARG_OF_PERICENTER":270.522,"MEAN_ANOMALY":89.5511,"EPHEMERIS_TYPE":0,"CLASSIFICATION_TYPE":"U","NORAD_CAT_ID":59789,"ELEMENT_SET_NO":999,"REV_AT_EPOCH":9725,"BSTAR":0.00021962724,"MEAN_MOTION_DOT":5.786e-5,"MEAN_MOTION_DDOT":0},{"OBJECT_NAME":"STARLINK-31873","OBJECT_ID":"2024-093J","EPOCH":"2026-02-02T02:19:09.927552","MEAN_MOTION":15.27584374,"ECCENTRICITY":8.349e-5,"INCLINATION":43.0052,"RA_OF_ASC_NODE":49.76,"ARG_OF_PERICENTER":263.8301,"MEAN_ANOMALY":96.2455,"EPHEMERIS_TYPE":0,"CLASSIFICATION_TYPE":"U","NORAD_CAT_ID":59790,"ELEMENT_SET_NO":999,"REV_AT_EPOCH":9725,"BSTAR":6.0163904e-5,"MEAN_MOTION_DOT":1.394e-5,"MEAN_MOTION_DDOT":0},{"OBJECT_NAME":"STARLINK-31865","OBJECT_ID":"2024-093K","EPOCH":"2026-02-02T00:50:33.406368","MEAN_MOTION":15.27582045,"ECCENTRICITY":0.00010299,"INCLINATION":43.0051,"RA_OF_ASC_NODE":50.1576,"ARG_OF_PERICENTER":260.2806,"MEAN_ANOMALY":99.793,"EPHEMERIS_TYPE":0,"CLASSIFICATION_TYPE":"U","NORAD_CAT_ID":59791,"ELEMENT_SET_NO":999,"REV_AT_EPOCH":9724,"BSTAR":4.9916351e-5,"MEAN_MOTION_DOT":1.112e-5,"MEAN_MOTION_DDOT":0},{"OBJECT_NAME":"STARLINK-31823","OBJECT_ID":"2024-093N","EPOCH":"2026-02-02T02:30:14.430816","MEAN_MOTION":15.27602993,"ECCENTRICITY":0.00013882,"INCLINATION":43.0051,"RA_OF_ASC_NODE":49.8157,"ARG_OF_PERICENTER":254.7131,"MEAN_ANOMALY":105.3567,"EPHEMERIS_TYPE":0,"CLASSIFICATION_TYPE":"U","NORAD_CAT_ID":59794,"ELEMENT_SET_NO":999,"REV_AT_EPOCH":9725,"BSTAR":0.00014573795,"MEAN_MOTION_DOT":3.753e-5,"MEAN_MOTION_DDOT":0},{"OBJECT_NAME":"STARLINK-31916","OBJECT_ID":"2024-093P","EPOCH":"2026-02-02T02:35:48.994944","MEAN_MOTION":15.2758223,"ECCENTRICITY":0.00012932,"INCLINATION":43.0044,"RA_OF_ASC_NODE":49.8436,"ARG_OF_PERICENTER":265.9778,"MEAN_ANOMALY":94.0926,"EPHEMERIS_TYPE":0,"CLASSIFICATION_TYPE":"U","NORAD_CAT_ID":59795,"ELEMENT_SET_NO":999,"REV_AT_EPOCH":9725,"BSTAR":1.96732e-6,"MEAN_MOTION_DOT":-2.08e-6,"MEAN_MOTION_DDOT":0},{"OBJECT_NAME":"STARLINK-31907","OBJECT_ID":"2024-093R","EPOCH":"2026-02-02T01:05:21.573312","MEAN_MOTION":15.27582966,"ECCENTRICITY":0.00011611,"INCLINATION":43.0049,"RA_OF_ASC_NODE":50.2325,"ARG_OF_PERICENTER":252.1422,"MEAN_ANOMALY":107.9303,"EPHEMERIS_TYPE":0,"CLASSIFICATION_TYPE":"U","NORAD_CAT_ID":59797,"ELEMENT_SET_NO":999,"REV_AT_EPOCH":9724,"BSTAR":3.2443783e-5,"MEAN_MOTION_DOT":6.31e-6,"MEAN_MOTION_DDOT":0},{"OBJECT_NAME":"STARLINK-31687","OBJECT_ID":"2024-093S","EPOCH":"2026-02-02T01:42:22.273632","MEAN_MOTION":15.27572918,"ECCENTRICITY":8.089e-5,"INCLINATION":43.0016,"RA_OF_ASC_NODE":50.4254,"ARG_OF_PERICENTER":266.4543,"MEAN_ANOMALY":93.6217,"EPHEMERIS_TYPE":0,"CLASSIFICATION_TYPE":"U","NORAD_CAT_ID":59798,"ELEMENT_SET_NO":999,"REV_AT_EPOCH":9724,"BSTAR":9.8671183e-5,"MEAN_MOTION_DOT":2.454e-5,"MEAN_MOTION_DDOT":0},{"OBJECT_NAME":"STARLINK-31810","OBJECT_ID":"2024-093T","EPOCH":"2026-02-02T07:38:38.051808","MEAN_MOTION":15.27585971,"ECCENTRICITY":0.00012161,"INCLINATION":42.999,"RA_OF_ASC_NODE":48.8382,"ARG_OF_PERICENTER":135.5335,"MEAN_ANOMALY":224.5615,"EPHEMERIS_TYPE":0,"CLASSIFICATION_TYPE":"U","NORAD_CAT_ID":59799,"ELEMENT_SET_NO":999,"REV_AT_EPOCH":9728,"BSTAR":4.9706532e-5,"MEAN_MOTION_DOT":1.106e-5,"MEAN_MOTION_DDOT":0},{"OBJECT_NAME":"STARLINK-31812","OBJECT_ID":"2024-093U","EPOCH":"2026-02-02T07:27:31.489632","MEAN_MOTION":15.27597134,"ECCENTRICITY":4.399e-5,"INCLINATION":43.0012,"RA_OF_ASC_NODE":48.7822,"ARG_OF_PERICENTER":254.7462,"MEAN_ANOMALY":105.3341,"EPHEMERIS_TYPE":0,"CLASSIFICATION_TYPE":"U","NORAD_CAT_ID":59800,"ELEMENT_SET_NO":999,"REV_AT_EPOCH":9735,"BSTAR":-6.3493204e-5,"MEAN_MOTION_DOT":-2.009e-5,"MEAN_MOTION_DDOT":0},{"OBJECT_NAME":"STARLINK-31815","OBJECT_ID":"2024-093V","EPOCH":"2026-02-02T01:16:27.789888","MEAN_MOTION":15.27584911,"ECCENTRICITY":0.00010894,"INCLINATION":43.0007,"RA_OF_ASC_NODE":50.2871,"ARG_OF_PERICENTER":268.9548,"MEAN_ANOMALY":91.1178,"EPHEMERIS_TYPE":0,"CLASSIFICATION_TYPE":"U","NORAD_CAT_ID":59801,"ELEMENT_SET_NO":999,"REV_AT_EPOCH":9724,"BSTAR":6.9410004e-5,"MEAN_MOTION_DOT":1.649e-5,"MEAN_MOTION_DDOT":0},{"OBJECT_NAME":"STARLINK-31814","OBJECT_ID":"2024-093W","EPOCH":"2026-02-02T08:04:32.486304","MEAN_MOTION":15.27580554,"ECCENTRICITY":9.406e-5,"INCLINATION":43.0016,"RA_OF_ASC_NODE":48.964,"ARG_OF_PERICENTER":283.7889,"MEAN_ANOMALY":76.2858,"EPHEMERIS_TYPE":0,"CLASSIFICATION_TYPE":"U","NORAD_CAT_ID":59802,"ELEMENT_SET_NO":999,"REV_AT_EPOCH":9728,"BSTAR":-1.8127167e-5,"MEAN_MOTION_DOT":-7.61e-6,"MEAN_MOTION_DDOT":0},{"OBJECT_NAME":"STARLINK-31794","OBJECT_ID":"2024-093X","EPOCH":"2026-02-02T01:33:07.245216","MEAN_MOTION":15.27581696,"ECCENTRICITY":6.671e-5,"INCLINATION":43.0017,"RA_OF_ASC_NODE":50.3749,"ARG_OF_PERICENTER":287.5343,"MEAN_ANOMALY":72.5436,"EPHEMERIS_TYPE":0,"CLASSIFICATION_TYPE":"U","NORAD_CAT_ID":59803,"ELEMENT_SET_NO":999,"REV_AT_EPOCH":9731,"BSTAR":8.3559404e-5,"MEAN_MOTION_DOT":2.038e-5,"MEAN_MOTION_DDOT":0},{"OBJECT_NAME":"STARLINK-31824","OBJECT_ID":"2024-093Y","EPOCH":"2026-02-02T01:27:34.007328","MEAN_MOTION":15.27580126,"ECCENTRICITY":8.575e-5,"INCLINATION":43.0003,"RA_OF_ASC_NODE":50.343,"ARG_OF_PERICENTER":269.4879,"MEAN_ANOMALY":90.5874,"EPHEMERIS_TYPE":0,"CLASSIFICATION_TYPE":"U","NORAD_CAT_ID":59804,"ELEMENT_SET_NO":999,"REV_AT_EPOCH":9724,"BSTAR":8.4486597e-5,"MEAN_MOTION_DOT":2.064e-5,"MEAN_MOTION_DDOT":0},{"OBJECT_NAME":"STARLINK-31947","OBJECT_ID":"2024-097A","EPOCH":"2026-02-02T05:06:29.187648","MEAN_MOTION":15.27564223,"ECCENTRICITY":7.859e-5,"INCLINATION":43.0027,"RA_OF_ASC_NODE":114.4979,"ARG_OF_PERICENTER":236.122,"MEAN_ANOMALY":123.9557,"EPHEMERIS_TYPE":0,"CLASSIFICATION_TYPE":"U","NORAD_CAT_ID":59835,"ELEMENT_SET_NO":999,"REV_AT_EPOCH":9649,"BSTAR":0.00016872203,"MEAN_MOTION_DOT":4.381e-5,"MEAN_MOTION_DDOT":0},{"OBJECT_NAME":"STARLINK-31929","OBJECT_ID":"2024-097B","EPOCH":"2026-02-01T14:22:16.661280","MEAN_MOTION":15.27589886,"ECCENTRICITY":4.321e-5,"INCLINATION":42.9957,"RA_OF_ASC_NODE":118.4872,"ARG_OF_PERICENTER":196.2584,"MEAN_ANOMALY":163.8254,"EPHEMERIS_TYPE":0,"CLASSIFICATION_TYPE":"U","NORAD_CAT_ID":59836,"ELEMENT_SET_NO":999,"REV_AT_EPOCH":9639,"BSTAR":-4.7833841e-5,"MEAN_MOTION_DOT":-1.578e-5,"MEAN_MOTION_DDOT":0},{"OBJECT_NAME":"STARLINK-31927","OBJECT_ID":"2024-097C","EPOCH":"2026-02-02T05:32:22.954272","MEAN_MOTION":15.27579018,"ECCENTRICITY":0.00012331,"INCLINATION":42.9974,"RA_OF_ASC_NODE":114.6269,"ARG_OF_PERICENTER":261.7992,"MEAN_ANOMALY":98.272,"EPHEMERIS_TYPE":0,"CLASSIFICATION_TYPE":"U","NORAD_CAT_ID":59837,"ELEMENT_SET_NO":999,"REV_AT_EPOCH":9649,"BSTAR":0.00010880722,"MEAN_MOTION_DOT":2.733e-5,"MEAN_MOTION_DDOT":0}]
